{
  "type": "FeatureCollection",
  "features": [
    {
      "type": "Feature",
      "properties": {
        "norad_id": 55973,
        "name": "TIANMU-1 03",
        "group": "weather",
        "lat": 26.498821684913093,
        "lon": -13.038409505544374,
        "alt_km": 443.06402763286223,
        "timestamp": "2025-12-26T03:50:11.730296+00:00",
        "meta_object_name": "TIANMU-1 03",
        "meta_object_id": "2023-039A",
        "meta_epoch": "2025-12-25T19:23:01.901760",
        "meta_mean_motion": 15.41305152,
        "meta_eccentricity": 0.0003752,
        "meta_inclination": 97.5115,
        "meta_ra_of_asc_node": 162.8275,
        "meta_arg_of_pericenter": 22.6695,
        "meta_mean_anomaly": 337.4716,
        "meta_ephemeris_type": 0,
        "meta_classification_type": "U",
        "meta_norad_cat_id": 55973,
        "meta_element_set_no": 999,
        "meta_rev_at_epoch": 15407,
        "meta_bstar": 0.00040239,
        "meta_mean_motion_dot": 0.00016692,
        "meta_mean_motion_ddot": 0,
        "tle_line1": "1 55973U 23039A   25359.80766090  .00016692  00000+0  40239-3 0  9990",
        "tle_line2": "2 55973  97.5115 162.8275 0003752  22.6695 337.4716 15.41305152154072"
      },
      "geometry": {
        "type": "Point",
        "coordinates": [
          -13.038409505544374,
          26.498821684913093
        ]
      }
    },
    {
      "type": "Feature",
      "properties": {
        "norad_id": 55974,
        "name": "TIANMU-1 04",
        "group": "weather",
        "lat": -74.65419780788608,
        "lon": -168.91444697339992,
        "alt_km": 448.5947965933465,
        "timestamp": "2025-12-26T03:50:11.730306+00:00",
        "meta_object_name": "TIANMU-1 04",
        "meta_object_id": "2023-039B",
        "meta_epoch": "2025-12-25T20:22:45.499008",
        "meta_mean_motion": 15.41650471,
        "meta_eccentricity": 0.0004337,
        "meta_inclination": 97.5047,
        "meta_ra_of_asc_node": 162.056,
        "meta_arg_of_pericenter": 15.6017,
        "meta_mean_anomaly": 344.5363,
        "meta_ephemeris_type": 0,
        "meta_classification_type": "U",
        "meta_norad_cat_id": 55974,
        "meta_element_set_no": 999,
        "meta_rev_at_epoch": 15408,
        "meta_bstar": 0.00038512,
        "meta_mean_motion_dot": 0.00016156,
        "meta_mean_motion_ddot": 0,
        "tle_line1": "1 55974U 23039B   25359.84913772  .00016156  00000+0  38512-3 0  9992",
        "tle_line2": "2 55974  97.5047 162.0560 0004337  15.6017 344.5363 15.41650471154081"
      },
      "geometry": {
        "type": "Point",
        "coordinates": [
          -168.91444697339992,
          -74.65419780788608
        ]
      }
    },
    {
      "type": "Feature",
      "properties": {
        "norad_id": 55975,
        "name": "TIANMU-1 05",
        "group": "weather",
        "lat": -62.23209909919893,
        "lon": 177.37718613808948,
        "alt_km": 450.20685148638677,
        "timestamp": "2025-12-26T03:50:11.730372+00:00",
        "meta_object_name": "TIANMU-1 05",
        "meta_object_id": "2023-039C",
        "meta_epoch": "2025-12-25T20:19:10.033824",
        "meta_mean_motion": 15.41263059,
        "meta_eccentricity": 0.0003883,
        "meta_inclination": 97.5093,
        "meta_ra_of_asc_node": 162.5462,
        "meta_arg_of_pericenter": 42.039,
        "meta_mean_anomaly": 318.1154,
        "meta_ephemeris_type": 0,
        "meta_classification_type": "U",
        "meta_norad_cat_id": 55975,
        "meta_element_set_no": 999,
        "meta_rev_at_epoch": 15406,
        "meta_bstar": 0.00038177,
        "meta_mean_motion_dot": 0.00015808,
        "meta_mean_motion_ddot": 0,
        "tle_line1": "1 55975U 23039C   25359.84664391  .00015808  00000+0  38177-3 0  9993",
        "tle_line2": "2 55975  97.5093 162.5462 0003883  42.0390 318.1154 15.41263059154067"
      },
      "geometry": {
        "type": "Point",
        "coordinates": [
          177.37718613808948,
          -62.23209909919893
        ]
      }
    },
    {
      "type": "Feature",
      "properties": {
        "norad_id": 55976,
        "name": "TIANMU-1 06",
        "group": "weather",
        "lat": -81.54158633444649,
        "lon": -134.13518173938346,
        "alt_km": 449.8679026235359,
        "timestamp": "2025-12-26T03:50:11.730387+00:00",
        "meta_object_name": "TIANMU-1 06",
        "meta_object_id": "2023-039D",
        "meta_epoch": "2025-12-25T20:25:15.549888",
        "meta_mean_motion": 15.41701653,
        "meta_eccentricity": 0.0004139,
        "meta_inclination": 97.5104,
        "meta_ra_of_asc_node": 163.0266,
        "meta_arg_of_pericenter": 35.8337,
        "meta_mean_anomaly": 324.3187,
        "meta_ephemeris_type": 0,
        "meta_classification_type": "U",
        "meta_norad_cat_id": 55976,
        "meta_element_set_no": 999,
        "meta_rev_at_epoch": 15408,
        "meta_bstar": 0.00038385,
        "meta_mean_motion_dot": 0.00016129,
        "meta_mean_motion_ddot": 0,
        "tle_line1": "1 55976U 23039D   25359.85087442  .00016129  00000+0  38385-3 0  9999",
        "tle_line2": "2 55976  97.5104 163.0266 0004139  35.8337 324.3187 15.41701653154089"
      },
      "geometry": {
        "type": "Point",
        "coordinates": [
          -134.13518173938346,
          -81.54158633444649
        ]
      }
    },
    {
      "type": "Feature",
      "properties": {
        "norad_id": 56232,
        "name": "FENGYUN 3G",
        "group": "weather",
        "lat": -24.8055233057074,
        "lon": 135.35382605590962,
        "alt_km": 411.44950979580426,
        "timestamp": "2025-12-26T03:50:11.730401+00:00",
        "meta_object_name": "FENGYUN 3G",
        "meta_object_id": "2023-055A",
        "meta_epoch": "2025-12-25T20:15:13.028256",
        "meta_mean_motion": 15.52095012,
        "meta_eccentricity": 0.0003941,
        "meta_inclination": 49.993,
        "meta_ra_of_asc_node": 159.8234,
        "meta_arg_of_pericenter": 292.0602,
        "meta_mean_anomaly": 67.9946,
        "meta_ephemeris_type": 0,
        "meta_classification_type": "U",
        "meta_norad_cat_id": 56232,
        "meta_element_set_no": 999,
        "meta_rev_at_epoch": 15306,
        "meta_bstar": 0.00050019,
        "meta_mean_motion_dot": 0.00030466,
        "meta_mean_motion_ddot": 0,
        "tle_line1": "1 56232U 23055A   25359.84390079  .00030466  00000+0  50019-3 0  9993",
        "tle_line2": "2 56232  49.9930 159.8234 0003941 292.0602  67.9946 15.52095012153060"
      },
      "geometry": {
        "type": "Point",
        "coordinates": [
          135.35382605590962,
          -24.8055233057074
        ]
      }
    },
    {
      "type": "Feature",
      "properties": {
        "norad_id": 57166,
        "name": "METEOR-M2 3",
        "group": "weather",
        "lat": -65.02606795332451,
        "lon": -145.58101420150535,
        "alt_km": 818.5686935044914,
        "timestamp": "2025-12-26T03:50:11.730413+00:00",
        "meta_object_name": "METEOR-M2 3",
        "meta_object_id": "2023-091A",
        "meta_epoch": "2025-12-25T19:56:14.280576",
        "meta_mean_motion": 14.24027608,
        "meta_eccentricity": 0.000322,
        "meta_inclination": 98.6361,
        "meta_ra_of_asc_node": 53.1403,
        "meta_arg_of_pericenter": 327.7215,
        "meta_mean_anomaly": 32.3767,
        "meta_ephemeris_type": 0,
        "meta_classification_type": "U",
        "meta_norad_cat_id": 57166,
        "meta_element_set_no": 999,
        "meta_rev_at_epoch": 12984,
        "meta_bstar": 2.0119e-05,
        "meta_mean_motion_dot": 3e-08,
        "meta_mean_motion_ddot": 0,
        "tle_line1": "1 57166U 23091A   25359.83072084  .00000003  00000+0  20119-4 0  9995",
        "tle_line2": "2 57166  98.6361  53.1403 0003220 327.7215  32.3767 14.24027608129846"
      },
      "geometry": {
        "type": "Point",
        "coordinates": [
          -145.58101420150535,
          -65.02606795332451
        ]
      }
    },
    {
      "type": "Feature",
      "properties": {
        "norad_id": 57399,
        "name": "TIANMU-1 07",
        "group": "weather",
        "lat": 55.29320889788574,
        "lon": 39.06896105650759,
        "alt_km": 472.4378674034897,
        "timestamp": "2025-12-26T03:50:11.730423+00:00",
        "meta_object_name": "TIANMU-1 07",
        "meta_object_id": "2023-101A",
        "meta_epoch": "2025-12-25T19:44:08.193120",
        "meta_mean_motion": 15.28255999,
        "meta_eccentricity": 0.0004965,
        "meta_inclination": 97.2855,
        "meta_ra_of_asc_node": 49.3834,
        "meta_arg_of_pericenter": 47.7551,
        "meta_mean_anomaly": 312.411,
        "meta_ephemeris_type": 0,
        "meta_classification_type": "U",
        "meta_norad_cat_id": 57399,
        "meta_element_set_no": 999,
        "meta_rev_at_epoch": 13515,
        "meta_bstar": 0.00029554,
        "meta_mean_motion_dot": 8.067e-05,
        "meta_mean_motion_ddot": 0,
        "tle_line1": "1 57399U 23101A   25359.82231705  .00008067  00000+0  29554-3 0  9990",
        "tle_line2": "2 57399  97.2855  49.3834 0004965  47.7551 312.4110 15.28255999135157"
      },
      "geometry": {
        "type": "Point",
        "coordinates": [
          39.06896105650759,
          55.29320889788574
        ]
      }
    }
  ]
}